$$SOE
2460721.500000000, A.D. 2025-Feb-15 00:00:00.0000, 4.430823923318815E+08, 1.379381535609189E+08, -3.510133071585359E+07,
2460728.500000000, A.D. 2025-Feb-22 00:00:00.0000, 4.394905534196129E+08, 1.475545143386959E+08, -3.598487502694827E+07,
2460735.500000000, A.D. 2025-Mar-01 00:00:00.0000, 4.356864831573877E+08, 1.570996216857321E+08, -3.685104080491135E+07,
2460742.500000000, A.D. 2025-Mar-08 00:00:00.0000, 4.316714961587919E+08, 1.665686792595412E+08, -3.769936563637650E+07,
2460749.500000000, A.D. 2025-Mar-15 00:00:00.0000, 4.274470229830005E+08, 1.759569077294550E+08, -3.852939397125676E+07,
2460756.500000000, A.D. 2025-Mar-22 00:00:00.0000, 4.230146081753890E+08, 1.852595481493057E+08, -3.934067721202922E+07,
2460763.500000000, A.D. 2025-Mar-29 00:00:00.0000, 4.183759095952061E+08, 1.944718631135191E+08, -4.013277411223628E+07,
2460770.500000000, A.D. 2025-Apr-05 00:00:00.0000, 4.135326993520195E+08, 2.035891388312510E+08, -4.090525125743417E+07,
2460777.500000000, A.D. 2025-Apr-12 00:00:00.0000, 4.084868644215072E+08, 2.126066882202162E+08, -4.165768344317140E+07,
2460784.500000000, A.D. 2025-Apr-19 00:00:00.0000, 4.032404067510824E+08, 2.215198541367005E+08, -4.238965400468785E+07,
2460791.500000000, A.D. 2025-Apr-26 00:00:00.0000, 3.977954431249663E+08, 2.303240125362521E+08, -4.310075513968892E+07,
2460798.500000000, A.D. 2025-May-03 00:00:00.0000, 3.921542049003404E+08, 2.390145755815530E+08, -4.379058823284628E+07,
2460805.500000000, A.D. 2025-May-10 00:00:00.0000, 3.863190376411670E+08, 2.475869947033270E+08, -4.445876418366920E+07,
2460812.500000000, A.D. 2025-May-17 00:00:00.0000, 3.802924006845721E+08, 2.560367635703895E+08, -4.510490374415318E+07,
2460819.500000000, A.D. 2025-May-24 00:00:00.0000, 3.740768668122820E+08, 2.643594209114689E+08, -4.572863788630082E+07,
2460826.500000000, A.D. 2025-May-31 00:00:00.0000, 3.676751224439265E+08, 2.725505534962819E+08, -4.632960821215761E+07,
2460833.500000000, A.D. 2025-Jun-07 00:00:00.0000, 3.610899679492520E+08, 2.806058004757465E+08, -4.690746727060815E+07,
2460840.500000000, A.D. 2025-Jun-14 00:00:00.0000, 3.543243157110692E+08, 2.885208584107215E+08, -4.746187861758976E+07,
2460847.500000000, A.D. 2025-Jun-21 00:00:00.0000, 3.473811871554359E+08, 2.962914837167599E+08, -4.799251699830595E+07,
2460854.500000000, A.D. 2025-Jun-28 00:00:00.0000, 3.402637118785768E+08, 3.039134942857726E+08, -4.849906879413712E+07,
2460861.500000000, A.D. 2025-Jul-05 00:00:00.0000, 3.329751273523632E+08, 3.113827724358339E+08, -4.898123241828676E+07,
2460868.500000000, A.D. 2025-Jul-12 00:00:00.0000, 3.255187780159586E+08, 3.186952683798727E+08, -4.943871861606982E+07,
2460875.500000000, A.D. 2025-Jul-19 00:00:00.0000, 3.178981139429786E+08, 3.258470036346032E+08, -4.987125073374894E+07,
2460882.500000000, A.D. 2025-Jul-26 00:00:00.0000, 3.101166892944280E+08, 3.328340743091756E+08, -5.027856497937566E+07,
2460889.500000000, A.D. 2025-Aug-02 00:00:00.0000, 3.021781606233611E+08, 3.396526542906822E+08, -5.066041067939408E+07,
2460896.500000000, A.D. 2025-Aug-09 00:00:00.0000, 2.940862850551447E+08, 3.462989983067064E+08, -5.101655053371653E+07,
2460903.500000000, A.D. 2025-Aug-16 00:00:00.0000, 2.858449184202423E+08, 3.527694447960557E+08, -5.134676088062757E+07,
2460910.500000000, A.D. 2025-Aug-23 00:00:00.0000, 2.774580136316346E+08, 3.590604185988327E+08, -5.165083199598403E+07,
2460917.500000000, A.D. 2025-Aug-30 00:00:00.0000, 2.689296196355908E+08, 3.651684341752171E+08, -5.192856839761071E+07,
2460924.500000000, A.D. 2025-Sep-06 00:00:00.0000, 2.602638795172705E+08, 3.710901003480327E+08, -5.217978894204634E+07,
2460931.500000000, A.D. 2025-Sep-13 00:00:00.0000, 2.514650260891078E+08, 3.768221240827858E+08, -5.240432676213734E+07,
2460938.500000000, A.D. 2025-Sep-20 00:00:00.0000, 2.425373782379407E+08, 3.823613116609577E+08, -5.260202948012279E+07,
2460945.500000000, A.D. 2025-Sep-27 00:00:00.0000, 2.334853390947219E+08, 3.877045703550902E+08, -5.277275953935450E+07,
2460952.500000000, A.D. 2025-Oct-04 00:00:00.0000, 2.243133940128919E+08, 3.928489111390887E+08, -5.291639442509770E+07,
2460959.500000000, A.D. 2025-Oct-11 00:00:00.0000, 2.150261079836909E+08, 3.977914514857323E+08, -5.303282681659126E+07,
2460966.500000000, A.D. 2025-Oct-18 00:00:00.0000, 2.056281227743258E+08, 4.025294179725849E+08, -5.312196471835707E+07,
2460973.500000000, A.D. 2025-Oct-25 00:00:00.0000, 1.961241539309785E+08, 4.070601487031671E+08, -5.318373158231239E+07,
2460980.500000000, A.D. 2025-Nov-01 00:00:00.0000, 1.865189876887632E+08, 4.113810955549534E+08, -5.321806642278035E+07,
2460987.500000000, A.D. 2025-Nov-08 00:00:00.0000, 1.768174778261084E+08, 4.154898262190287E+08, -5.322492392994647E+07,
2460994.500000000, A.D. 2025-Nov-15 00:00:00.0000, 1.670245426145948E+08, 4.193840259692922E+08, -5.320427459997219E+07,
2461001.500000000, A.D. 2025-Nov-22 00:00:00.0000, 1.571451622705050E+08, 4.230614993781580E+08, -5.315610490068857E+07,
2461008.500000000, A.D. 2025-Nov-29 00:00:00.0000, 1.471843767594163E+08, 4.265201731105297E+08, -5.308041736619030E+07,
2461015.500000000, A.D. 2025-Dec-06 00:00:00.0000, 1.371472816807388E+08, 4.297580996543001E+08, -5.297723042213653E+07,
2461022.500000000, A.D. 2025-Dec-13 00:00:00.0000, 1.270390226672448E+08, 4.327734586116629E+08, -5.284657825594215E+07,
2461029.500000000, A.D. 2025-Dec-20 00:00:00.0000, 1.168647917956998E+08, 4.355645565740081E+08, -5.268851096884474E+07,
2461036.500000000, A.D. 2025-Dec-27 00:00:00.0000, 1.066298249402744E+08, 4.381298281701421E+08, -5.250309470004772E+07,
2461043.500000000, A.D. 2026-Jan-03 00:00:00.0000, 9.633939861377525E+07, 4.404678376692311E+08, -5.229041163924032E+07,
2461050.500000000, A.D. 2026-Jan-10 00:00:00.0000, 8.599882641054997E+07, 4.425772804579364E+08, -5.205055999298295E+07,
2461057.500000000, A.D. 2026-Jan-17 00:00:00.0000, 7.561345528848878E+07, 4.444569842993925E+08, -5.178365393388595E+07,
2461064.500000000, A.D. 2026-Jan-24 00:00:00.0000, 6.518866177342175E+07, 4.461059103960202E+08, -5.148982353797777E+07,
2461071.500000000, A.D. 2026-Jan-31 00:00:00.0000, 5.472984811489207E+07, 4.475231542479884E+08, -5.116921471304575E+07,
2461078.500000000, A.D. 2026-Feb-07 00:00:00.0000, 4.424243846029770E+07, 4.487079462491408E+08, -5.082198912822324E+07,
2461085.500000000, A.D. 2026-Feb-14 00:00:00.0000, 3.373187530572647E+07, 4.496596520044037E+08, -5.044832416921850E+07,
2461092.500000000, A.D. 2026-Feb-21 00:00:00.0000, 2.320361661618648E+07, 4.503777729457324E+08, -5.004841290766430E+07,
2461099.500000000, A.D. 2026-Feb-28 00:00:00.0000, 1.266313253641073E+07, 4.508619484006214E+08, -4.962246389120135E+07,
2461106.500000000, A.D. 2026-Mar-07 00:00:00.0000, 2.115899640303519E+06, 4.511119571610852E+08, -4.917070072466911E+07,
2461113.500000000, A.D. 2026-Mar-14 00:00:00.0000, -8.432604501640394E+06, 4.511277162178078E+08, -4.869336188696788E+07,
2461120.500000000, A.D. 2026-Mar-21 00:00:00.0000, -1.897690465013383E+07, 4.509092795599540E+08, -4.819070071092807E+07,
2461127.500000000, A.D. 2026-Mar-28 00:00:00.0000, -2.951153112284898E+07, 4.504568380710526E+08, -4.766298525854665E+07,
2461134.500000000, A.D. 2026-Apr-04 00:00:00.0000, -4.003102351577576E+07, 4.497707195551016E+08, -4.711049811521269E+07,
2461141.500000000, A.D. 2026-Apr-11 00:00:00.0000, -5.052993464062817E+07, 4.488513885333042E+08, -4.653353615755549E+07,
2461148.500000000, A.D. 2026-Apr-18 00:00:00.0000, -6.100283451286395E+07, 4.476994458053711E+08, -4.593241031019250E+07,
2461155.500000000, A.D. 2026-Apr-25 00:00:00.0000, -7.144431433796112E+07, 4.463156277901976E+08, -4.530744529433157E+07,
2461162.500000000, A.D. 2026-May-02 00:00:00.0000, -8.184899045906292E+07, 4.447008056157103E+08, -4.465897937319244E+07,
2461169.500000000, A.D. 2026-May-09 00:00:00.0000, -9.221150813630350E+07, 4.428559838910242E+08, -4.398736411076038E+07,
2461176.500000000, A.D. 2026-May-16 00:00:00.0000, -1.025265447761624E+08, 4.407822992998778E+08, -4.329296416720141E+07,
2461183.500000000, A.D. 2026-May-23 00:00:00.0000, -1.127888125560749E+08, 4.384810200409293E+08, -4.257615705278011E+07,
2461190.500000000, A.D. 2026-May-30 00:00:00.0000, -1.229930625184146E+08, 4.359535464399525E+08, -4.183733262481573E+07,
2461197.500000000, A.D. 2026-Jun-06 00:00:00.0000, -1.331340904445043E+08, 4.332014094634303E+08, -4.107689256680985E+07,
2461204.500000000, A.D. 2026-Jun-13 00:00:00.0000, -1.432067408383544E+08, 4.302262673336644E+08, -4.029525016990048E+07,
2461211.500000000, A.D. 2026-Jun-20 00:00:00.0000, -1.532059095178871E+08, 4.270299031764549E+08, -3.949283013273305E+07,
2461218.500000000, A.D. 2026-Jun-27 00:00:00.0000, -1.631265465066122E+08, 4.236142233658074E+08, -3.867006825279072E+07,
2461225.500000000, A.D. 2026-Jul-04 00:00:00.0000, -1.729636592209403E+08, 4.199812557930795E+08, -3.782741107299682E+07,
2461232.500000000, A.D. 2026-Jul-11 00:00:00.0000, -1.827123156953764E+08, 4.161331479312100E+08, -3.696531551817967E+07,
2461239.500000000, A.D. 2026-Jul-18 00:00:00.0000, -1.923676477494898E+08, 4.120721647229859E+08, -3.608424852844103E+07,
2461246.500000000, A.D. 2026-Jul-25 00:00:00.0000, -2.019248540690089E+08, 4.078006862997213E+08, -3.518468669211909E+07,
2461253.500000000, A.D. 2026-Aug-01 00:00:00.0000, -2.113792031498958E+08, 4.033212054861118E+08, -3.426711588734333E+07,
2461260.500000000, A.D. 2026-Aug-08 00:00:00.0000, -2.207260358876700E+08, 3.986363250594066E+08, -3.333203095542145E+07,
2461267.500000000, A.D. 2026-Aug-15 00:00:00.0000, -2.299607673945576E+08, 3.937487552174690E+08, -3.237993540788554E+07,
2461274.500000000, A.D. 2026-Aug-22 00:00:00.0000, -2.390788888039530E+08, 3.886613124820827E+08, -3.141134099831007E+07,
2461281.500000000, A.D. 2026-Aug-29 00:00:00.0000, -2.480759713492187E+08, 3.833769186711577E+08, -3.042676706202443E+07,
2461288.500000000, A.D. 2026-Sep-05 00:00:00.0000, -2.569476705790999E+08, 3.778985970757946E+08, -2.942674005400939E+07,
$$EOE